ONEWEB-0058             
1 45161U 20008AG  26063.44818992  .00000027  00000+0  40174-4 0  9997
2 45161  87.8761  57.1365 0001982  95.7914 264.3440 13.10369686294706
ONEWEB-0059             
1 45162U 20008AH  26064.05559202  .00000353  00000+0  97458-3 0  9990
2 45162  87.8761  57.0155 0001810  90.8497 269.2837 13.10370385294684
ONEWEB-0062             
1 45163U 20008AJ  26063.92859164 -.00000654  00000+0 -19098-2 0  9995
2 45163  87.8774  57.0232 0002124  96.7475 263.3894 13.10373430294531
ONEWEB-0065             
1 45164U 20008AK  26064.26461263  .00000569  00000+0  15931-2 0  9998
2 45164  87.8767  56.9648 0001791  74.1854 285.9471 13.10375420294276
ONEWEB-0066             
1 45424U 20020A   26063.46753947  .00000523  00000+0  14389-2 0  9991
2 45424  87.8859  41.8887 0001702  87.5541 272.5782 13.11415382288956
ONEWEB-0067             
1 45425U 20020B   26063.50496721 -.00000450  00000+0 -13059-2 0  9995
2 45425  87.8868  41.7898 0001670  79.4961 280.6355 13.11416609289015
ONEWEB-0080             
1 45426U 20020C   26063.43784044 -.00000437  00000+0 -12680-2 0  9990
2 45426  87.8858  41.8919 0002138  91.4086 268.7286 13.11417777288973
ONEWEB-0090             
1 45427U 20020D   26064.22046963  .00000423  00000+0  11565-2 0  9994
2 45427  87.8859  41.7373 0001900  84.2294 275.9051 13.11416956289042
ONEWEB-0061             
1 45428U 20020E   26064.17610732 -.00000121  00000+0 -37739-3 0  9999
2 45428  87.8859  41.7319 0001846  86.2646 273.8693 13.11415773288993
ONEWEB-0081             
1 45429U 20020F   26063.92870351  .00000489  00000+0  13433-2 0  9996
2 45429  87.8861  41.7968 0001629  84.4086 275.7228 13.11414678289072
ONEWEB-0069             
1 45430U 20020G   26063.38361380  .00000559  00000+0  15424-2 0  9995
2 45430  87.8856  41.9002 0001758  84.8955 275.2374 13.11417953288931
ONEWEB-0031             
1 45431U 20020H   26063.43192336 -.00000519  00000+0 -15004-2 0  9997
2 45431  87.8848  41.9088 0001983  88.3441 271.7914 13.11416876288929
ONEWEB-0027             
1 45432U 20020J   26063.43803002  .00000076  00000+0  16308-3 0  9992
2 45432  87.9152  26.6428 0002238  81.2863 278.8522 13.17647116292568
ONEWEB-0064             
1 45433U 20020K   26064.19319609 -.00000532  00000+0 -15360-2 0  9997
2 45433  87.8848  41.7474 0002000  84.7449 275.3907 13.11415702289051
ONEWEB-0018             
1 45434U 20020L   26064.22542125  .00000490  00000+0  13455-2 0  9997
2 45434  87.8861  41.7375 0001758  88.2326 271.9003 13.11417172289006
ONEWEB-0083             
1 45435U 20020M   26063.45312685  .00000425  00000+0  11638-2 0  9997
2 45435  87.8862  41.8789 0001899  84.6266 275.5078 13.11417417288943
ONEWEB-0095             
1 45436U 20020N   26064.20689613 -.00000181  00000+0 -54771-3 0  9997
2 45436  87.8862  41.7377 0002296  66.4485 293.6884 13.11419308289048
