[{"OBJECT_NAME":"ONEWEB-0058","OBJECT_ID":"2020-008AG","EPOCH":"2026-03-04T10:45:23.609088","MEAN_MOTION":13.10369686,"ECCENTRICITY":0.00019823,"INCLINATION":87.8761,"RA_OF_ASC_NODE":57.1365,"ARG_OF_PERICENTER":95.7914,"MEAN_ANOMALY":264.344,"EPHEMERIS_TYPE":0,"CLASSIFICATION_TYPE":"U","NORAD_CAT_ID":45161,"ELEMENT_SET_NO":999,"REV_AT_EPOCH":29470,"BSTAR":4.017414e-5,"MEAN_MOTION_DOT":2.7e-7,"MEAN_MOTION_DDOT":0},{"OBJECT_NAME":"ONEWEB-0059","OBJECT_ID":"2020-008AH","EPOCH":"2026-03-05T01:20:03.150528","MEAN_MOTION":13.10370385,"ECCENTRICITY":0.00018107,"INCLINATION":87.8761,"RA_OF_ASC_NODE":57.0155,"ARG_OF_PERICENTER":90.8497,"MEAN_ANOMALY":269.2837,"EPHEMERIS_TYPE":0,"CLASSIFICATION_TYPE":"U","NORAD_CAT_ID":45162,"ELEMENT_SET_NO":999,"REV_AT_EPOCH":29468,"BSTAR":0.00097457597,"MEAN_MOTION_DOT":3.53e-6,"MEAN_MOTION_DDOT":0},{"OBJECT_NAME":"ONEWEB-0062","OBJECT_ID":"2020-008AJ","EPOCH":"2026-03-04T22:17:10.317696","MEAN_MOTION":13.1037343,"ECCENTRICITY":0.00021247,"INCLINATION":87.8774,"RA_OF_ASC_NODE":57.0232,"ARG_OF_PERICENTER":96.7475,"MEAN_ANOMALY":263.3894,"EPHEMERIS_TYPE":0,"CLASSIFICATION_TYPE":"U","NORAD_CAT_ID":45163,"ELEMENT_SET_NO":999,"REV_AT_EPOCH":29453,"BSTAR":-0.0019097702,"MEAN_MOTION_DOT":-6.54e-6,"MEAN_MOTION_DDOT":0},{"OBJECT_NAME":"ONEWEB-0065","OBJECT_ID":"2020-008AK","EPOCH":"2026-03-05T06:21:02.531232","MEAN_MOTION":13.1037542,"ECCENTRICITY":0.0001791,"INCLINATION":87.8767,"RA_OF_ASC_NODE":56.9648,"ARG_OF_PERICENTER":74.1854,"MEAN_ANOMALY":285.9471,"EPHEMERIS_TYPE":0,"CLASSIFICATION_TYPE":"U","NORAD_CAT_ID":45164,"ELEMENT_SET_NO":999,"REV_AT_EPOCH":29427,"BSTAR":0.0015930933,"MEAN_MOTION_DOT":5.69e-6,"MEAN_MOTION_DDOT":0},{"OBJECT_NAME":"ONEWEB-0066","OBJECT_ID":"2020-020A","EPOCH":"2026-03-04T11:13:15.410208","MEAN_MOTION":13.11415382,"ECCENTRICITY":0.00017021,"INCLINATION":87.8859,"RA_OF_ASC_NODE":41.8887,"ARG_OF_PERICENTER":87.5541,"MEAN_ANOMALY":272.5782,"EPHEMERIS_TYPE":0,"CLASSIFICATION_TYPE":"U","NORAD_CAT_ID":45424,"ELEMENT_SET_NO":999,"REV_AT_EPOCH":28895,"BSTAR":0.0014389008,"MEAN_MOTION_DOT":5.23e-6,"MEAN_MOTION_DDOT":0},{"OBJECT_NAME":"ONEWEB-0067","OBJECT_ID":"2020-020B","EPOCH":"2026-03-04T12:07:09.166944","MEAN_MOTION":13.11416609,"ECCENTRICITY":0.000167,"INCLINATION":87.8868,"RA_OF_ASC_NODE":41.7898,"ARG_OF_PERICENTER":79.4961,"MEAN_ANOMALY":280.6355,"EPHEMERIS_TYPE":0,"CLASSIFICATION_TYPE":"U","NORAD_CAT_ID":45425,"ELEMENT_SET_NO":999,"REV_AT_EPOCH":28901,"BSTAR":-0.0013059,"MEAN_MOTION_DOT":-4.5e-6,"MEAN_MOTION_DDOT":0},{"OBJECT_NAME":"ONEWEB-0080","OBJECT_ID":"2020-020C","EPOCH":"2026-03-04T10:30:29.414016","MEAN_MOTION":13.11417777,"ECCENTRICITY":0.00021384,"INCLINATION":87.8858,"RA_OF_ASC_NODE":41.8919,"ARG_OF_PERICENTER":91.4086,"MEAN_ANOMALY":268.7286,"EPHEMERIS_TYPE":0,"CLASSIFICATION_TYPE":"U","NORAD_CAT_ID":45426,"ELEMENT_SET_NO":999,"REV_AT_EPOCH":28897,"BSTAR":-0.0012680393,"MEAN_MOTION_DOT":-4.37e-6,"MEAN_MOTION_DDOT":0},{"OBJECT_NAME":"ONEWEB-0090","OBJECT_ID":"2020-020D","EPOCH":"2026-03-05T05:17:28.576032","MEAN_MOTION":13.11416956,"ECCENTRICITY":0.00019,"INCLINATION":87.8859,"RA_OF_ASC_NODE":41.7373,"ARG_OF_PERICENTER":84.2294,"MEAN_ANOMALY":275.9051,"EPHEMERIS_TYPE":0,"CLASSIFICATION_TYPE":"U","NORAD_CAT_ID":45427,"ELEMENT_SET_NO":999,"REV_AT_EPOCH":28904,"BSTAR":0.0011565415,"MEAN_MOTION_DOT":4.23e-6,"MEAN_MOTION_DDOT":0},{"OBJECT_NAME":"ONEWEB-0061","OBJECT_ID":"2020-020E","EPOCH":"2026-03-05T04:13:35.672448","MEAN_MOTION":13.11415773,"ECCENTRICITY":0.00018467,"INCLINATION":87.8859,"RA_OF_ASC_NODE":41.7319,"ARG_OF_PERICENTER":86.2646,"MEAN_ANOMALY":273.8693,"EPHEMERIS_TYPE":0,"CLASSIFICATION_TYPE":"U","NORAD_CAT_ID":45428,"ELEMENT_SET_NO":999,"REV_AT_EPOCH":28899,"BSTAR":-0.00037738991,"MEAN_MOTION_DOT":-1.21e-6,"MEAN_MOTION_DDOT":0},{"OBJECT_NAME":"ONEWEB-0081","OBJECT_ID":"2020-020F","EPOCH":"2026-03-04T22:17:19.983264","MEAN_MOTION":13.11414678,"ECCENTRICITY":0.00016299,"INCLINATION":87.8861,"RA_OF_ASC_NODE":41.7968,"ARG_OF_PERICENTER":84.4086,"MEAN_ANOMALY":275.7228,"EPHEMERIS_TYPE":0,"CLASSIFICATION_TYPE":"U","NORAD_CAT_ID":45429,"ELEMENT_SET_NO":999,"REV_AT_EPOCH":28907,"BSTAR":0.0013432849,"MEAN_MOTION_DOT":4.89e-6,"MEAN_MOTION_DDOT":0},{"OBJECT_NAME":"ONEWEB-0069","OBJECT_ID":"2020-020G","EPOCH":"2026-03-04T09:12:24.232320","MEAN_MOTION":13.11417953,"ECCENTRICITY":0.0001758,"INCLINATION":87.8856,"RA_OF_ASC_NODE":41.9002,"ARG_OF_PERICENTER":84.8955,"MEAN_ANOMALY":275.2374,"EPHEMERIS_TYPE":0,"CLASSIFICATION_TYPE":"U","NORAD_CAT_ID":45430,"ELEMENT_SET_NO":999,"REV_AT_EPOCH":28893,"BSTAR":0.00154243,"MEAN_MOTION_DOT":5.59e-6,"MEAN_MOTION_DDOT":0},{"OBJECT_NAME":"ONEWEB-0031","OBJECT_ID":"2020-020H","EPOCH":"2026-03-04T10:21:58.178304","MEAN_MOTION":13.11416876,"ECCENTRICITY":0.00019839,"INCLINATION":87.8848,"RA_OF_ASC_NODE":41.9088,"ARG_OF_PERICENTER":88.3441,"MEAN_ANOMALY":271.7914,"EPHEMERIS_TYPE":0,"CLASSIFICATION_TYPE":"U","NORAD_CAT_ID":45431,"ELEMENT_SET_NO":999,"REV_AT_EPOCH":28892,"BSTAR":-0.001500417,"MEAN_MOTION_DOT":-5.19e-6,"MEAN_MOTION_DDOT":0},{"OBJECT_NAME":"ONEWEB-0027","OBJECT_ID":"2020-020J","EPOCH":"2026-03-04T10:30:45.793728","MEAN_MOTION":13.17647116,"ECCENTRICITY":0.00022381,"INCLINATION":87.9152,"RA_OF_ASC_NODE":26.6428,"ARG_OF_PERICENTER":81.2863,"MEAN_ANOMALY":278.8522,"EPHEMERIS_TYPE":0,"CLASSIFICATION_TYPE":"U","NORAD_CAT_ID":45432,"ELEMENT_SET_NO":999,"REV_AT_EPOCH":29256,"BSTAR":0.00016308114,"MEAN_MOTION_DOT":7.6e-7,"MEAN_MOTION_DDOT":0},{"OBJECT_NAME":"ONEWEB-0064","OBJECT_ID":"2020-020K","EPOCH":"2026-03-05T04:38:12.142176","MEAN_MOTION":13.11415702,"ECCENTRICITY":0.00020007,"INCLINATION":87.8848,"RA_OF_ASC_NODE":41.7474,"ARG_OF_PERICENTER":84.7449,"MEAN_ANOMALY":275.3907,"EPHEMERIS_TYPE":0,"CLASSIFICATION_TYPE":"U","NORAD_CAT_ID":45433,"ELEMENT_SET_NO":999,"REV_AT_EPOCH":28905,"BSTAR":-0.001535983,"MEAN_MOTION_DOT":-5.32e-6,"MEAN_MOTION_DDOT":0},{"OBJECT_NAME":"ONEWEB-0018","OBJECT_ID":"2020-020L","EPOCH":"2026-03-05T05:24:36.396000","MEAN_MOTION":13.11417172,"ECCENTRICITY":0.00017588,"INCLINATION":87.8861,"RA_OF_ASC_NODE":41.7375,"ARG_OF_PERICENTER":88.2326,"MEAN_ANOMALY":271.9003,"EPHEMERIS_TYPE":0,"CLASSIFICATION_TYPE":"U","NORAD_CAT_ID":45434,"ELEMENT_SET_NO":999,"REV_AT_EPOCH":28900,"BSTAR":0.0013455021,"MEAN_MOTION_DOT":4.9e-6,"MEAN_MOTION_DDOT":0},{"OBJECT_NAME":"ONEWEB-0083","OBJECT_ID":"2020-020M","EPOCH":"2026-03-04T10:52:30.159840","MEAN_MOTION":13.11417417,"ECCENTRICITY":0.00018995,"INCLINATION":87.8862,"RA_OF_ASC_NODE":41.8789,"ARG_OF_PERICENTER":84.6266,"MEAN_ANOMALY":275.5078,"EPHEMERIS_TYPE":0,"CLASSIFICATION_TYPE":"U","NORAD_CAT_ID":45435,"ELEMENT_SET_NO":999,"REV_AT_EPOCH":28894,"BSTAR":0.0011638185,"MEAN_MOTION_DOT":4.25e-6,"MEAN_MOTION_DDOT":0},{"OBJECT_NAME":"ONEWEB-0095","OBJECT_ID":"2020-020N","EPOCH":"2026-03-05T04:57:55.825632","MEAN_MOTION":13.11419308,"ECCENTRICITY":0.00022965,"INCLINATION":87.8862,"RA_OF_ASC_NODE":41.7377,"ARG_OF_PERICENTER":66.4485,"MEAN_ANOMALY":293.6884,"EPHEMERIS_TYPE":0,"CLASSIFICATION_TYPE":"U","NORAD_CAT_ID":45436,"ELEMENT_SET_NO":999,"REV_AT_EPOCH":28904,"BSTAR":-0.00054771381,"MEAN_MOTION_DOT":-1.81e-6,"MEAN_MOTION_DDOT":0}]
